[{"OBJECT_NAME":"GAOFEN-9 05","OBJECT_ID":"2020-058A","EPOCH":"2026-03-10T00:01:50.876256","MEAN_MOTION":15.30293976,"ECCENTRICITY":0.0010522,"INCLINATION":97.2228,"RA_OF_ASC_NODE":111.963,"ARG_OF_PERICENTER":91.0204,"MEAN_ANOMALY":269.2242,"EPHEMERIS_TYPE":0,"CLASSIFICATION_TYPE":"U","NORAD_CAT_ID":46232,"ELEMENT_SET_NO":999,"REV_AT_EPOCH":30843,"BSTAR":0.00025120304,"MEAN_MOTION_DOT":7.299e-5,"MEAN_MOTION_DDOT":0},{"OBJECT_NAME":"STARLINK-35306","OBJECT_ID":"2026-003AD","EPOCH":"2026-03-09T11:40:24.934080","MEAN_MOTION":15.2760162,"ECCENTRICITY":4.133e-5,"INCLINATION":42.9965,"RA_OF_ASC_NODE":228.1323,"ARG_OF_PERICENTER":331.1581,"MEAN_ANOMALY":28.9248,"EPHEMERIS_TYPE":0,"CLASSIFICATION_TYPE":"U","NORAD_CAT_ID":67361,"ELEMENT_SET_NO":999,"REV_AT_EPOCH":879,"BSTAR":0.0012615773,"MEAN_MOTION_DOT":0.0003464,"MEAN_MOTION_DDOT":0}]
